start=new Date('2022-08-03T00:00:00.000Z').valueOf();
sats=[{"DECAY_DATE":null,"GP_ID":"209425669","MEAN_ANOMALY":"287.8542","BSTAR":"-0.00005399500000","OBJECT_NAME":"STARLINK-1358","MEAN_ELEMENT_THEORY":"SGP4","LAUNCH_DATE":"2020-04-22","EPOCH":"2022-08-02T08:29:07.292832","SEMIMAJOR_AXIS":"6925.365","SITE":"AFETR","COUNTRY_CODE":"US","CENTER_NAME":"EARTH","OBJECT_ID":"2020-025AM","APOAPSIS":"548.282","REF_FRAME":"TEME","TIME_SYSTEM":"UTC","PERIAPSIS":"546.177","OBJECT_TYPE":"PAYLOAD","MEAN_MOTION":"15.06394715","TLE_LINE1":"1 45566U 20025AM  22214.35355663 -.00001086  00000-0 -53995-4 0  9994","EPHEMERIS_TYPE":"0","CLASSIFICATION_TYPE":"U","FILE":"3527697","MEAN_MOTION_DDOT":"0.0000000000000","PERIOD":"95.592","RA_OF_ASC_NODE":"231.4033","ELEMENT_SET_NO":"999","REV_AT_EPOCH":"12711","NORAD_CAT_ID":"45566","RCS_SIZE":"LARGE","ARG_OF_PERICENTER":"72.2613","MEAN_MOTION_DOT":"-0.00001086","TLE_LINE2":"2 45566  53.0541 231.4033 0001520  72.2613 287.8542 15.06394715127110","ECCENTRICITY":"0.00015200","INCLINATION":"53.0541"},{"TLE_LINE2":"2 45567  53.0535 231.3309 0001426  80.9931 279.1219 15.06392940127127","MEAN_MOTION_DOT":"0.00000577","ECCENTRICITY":"0.00014260","INCLINATION":"53.0535","NORAD_CAT_ID":"45567","ARG_OF_PERICENTER":"80.9931","RCS_SIZE":"LARGE","PERIOD":"95.593","RA_OF_ASC_NODE":"231.3309","ELEMENT_SET_NO":"999","REV_AT_EPOCH":"12712","MEAN_MOTION":"15.06392940","TLE_LINE1":"1 45567U 20025AN  22214.36461752  .00000577  00000-0  57627-4 0  9991","FILE":"3527697","MEAN_MOTION_DDOT":"0.0000000000000","EPHEMERIS_TYPE":"0","CLASSIFICATION_TYPE":"U","APOAPSIS":"548.223","REF_FRAME":"TEME","OBJECT_TYPE":"PAYLOAD","TIME_SYSTEM":"UTC","PERIAPSIS":"546.248","SITE":"AFETR","SEMIMAJOR_AXIS":"6925.370","COUNTRY_CODE":"US","OBJECT_ID":"2020-025AN","CENTER_NAME":"EARTH","BSTAR":"0.00005762700000","MEAN_ANOMALY":"279.1219","LAUNCH_DATE":"2020-04-22","EPOCH":"2022-08-02T08:45:02.953728","MEAN_ELEMENT_THEORY":"SGP4","OBJECT_NAME":"STARLINK-1361","DECAY_DATE":null,"GP_ID":"209426419"},{"MEAN_ANOMALY":"285.4000","BSTAR":"-0.00012584000000","OBJECT_NAME":"STARLINK-1363","EPOCH":"2022-08-02T10:41:51.372672","LAUNCH_DATE":"2020-04-22","MEAN_ELEMENT_THEORY":"SGP4","GP_ID":"209425167","DECAY_DATE":null,"APOAPSIS":"548.277","REF_FRAME":"TEME","TIME_SYSTEM":"UTC","PERIAPSIS":"546.106","OBJECT_TYPE":"PAYLOAD","SEMIMAJOR_AXIS":"6925.327","SITE":"AFETR","COUNTRY_CODE":"US","CENTER_NAME":"EARTH","OBJECT_ID":"2020-025AP","PERIOD":"95.592","RA_OF_ASC_NODE":"231.2228","ELEMENT_SET_NO":"999","REV_AT_EPOCH":"12712","MEAN_MOTION":"15.06407177","TLE_LINE1":"1 45568U 20025AP  22214.44573348 -.00002156  00000-0 -12584-3 0  9995","EPHEMERIS_TYPE":"0","CLASSIFICATION_TYPE":"U","FILE":"3527697","MEAN_MOTION_DDOT":"0.0000000000000","MEAN_MOTION_DOT":"-0.00002156","TLE_LINE2":"2 45568  53.0537 231.2228 0001568  74.7162 285.4000 15.06407177127120","ECCENTRICITY":"0.00015680","INCLINATION":"53.0537","NORAD_CAT_ID":"45568","RCS_SIZE":"LARGE","ARG_OF_PERICENTER":"74.7162"},{"MEAN_MOTION_DDOT":"0.0000000000000","FILE":"3527697","CLASSIFICATION_TYPE":"U","EPHEMERIS_TYPE":"0","TLE_LINE1":"1 45569U 20025AQ  22214.43464749 -.00001306  00000-0 -68835-4 0  9996","MEAN_MOTION":"15.06389821","REV_AT_EPOCH":"12712","ELEMENT_SET_NO":"999","RA_OF_ASC_NODE":"231.0306","PERIOD":"95.593","ARG_OF_PERICENTER":"67.8246","RCS_SIZE":"LARGE","NORAD_CAT_ID":"45569","INCLINATION":"53.0541","ECCENTRICITY":"0.00015570","TLE_LINE2":"2 45569  53.0541 231.0306 0001557  67.8246 292.2909 15.06389821127124","MEAN_MOTION_DOT":"-0.00001306","DECAY_DATE":null,"GP_ID":"209424918","MEAN_ELEMENT_THEORY":"SGP4","LAUNCH_DATE":"2020-04-22","EPOCH":"2022-08-02T10:25:53.543136","OBJECT_NAME":"STARLINK-1366","BSTAR":"-0.00006883500000","MEAN_ANOMALY":"292.2909","CENTER_NAME":"EARTH","OBJECT_ID":"2020-025AQ","COUNTRY_CODE":"US","SITE":"AFETR","SEMIMAJOR_AXIS":"6925.380","OBJECT_TYPE":"PAYLOAD","PERIAPSIS":"546.166","TIME_SYSTEM":"UTC","REF_FRAME":"TEME","APOAPSIS":"548.323"},{"MEAN_ANOMALY":"283.9157","BSTAR":"0.00009952900000","OBJECT_NAME":"STARLINK-1376","MEAN_ELEMENT_THEORY":"SGP4","LAUNCH_DATE":"2020-04-22","EPOCH":"2022-08-02T10:15:16.840800","GP_ID":"209426169","DECAY_DATE":null,"APOAPSIS":"548.029","REF_FRAME":"TEME","TIME_SYSTEM":"UTC","PERIAPSIS":"546.428","OBJECT_TYPE":"PAYLOAD","SEMIMAJOR_AXIS":"6925.363","SITE":"AFETR","COUNTRY_CODE":"US","CENTER_NAME":"EARTH","OBJECT_ID":"2020-025AR","PERIOD":"95.592","RA_OF_ASC_NODE":"231.0538","ELEMENT_SET_NO":"999","REV_AT_EPOCH":"12712","MEAN_MOTION":"15.06395258","TLE_LINE1":"1 45570U 20025AR  22214.42727825  .00001201  00000-0  99529-4 0  9990","EPHEMERIS_TYPE":"0","CLASSIFICATION_TYPE":"U","FILE":"3527697","MEAN_MOTION_DDOT":"0.0000000000000","MEAN_MOTION_DOT":"0.00001201","TLE_LINE2":"2 45570  53.0535 231.0538 0001156  76.1960 283.9157 15.06395258127120","ECCENTRICITY":"0.00011560","INCLINATION":"53.0535","NORAD_CAT_ID":"45570","RCS_SIZE":"LARGE","ARG_OF_PERICENTER":"76.1960"},{"CLASSIFICATION_TYPE":"U","EPHEMERIS_TYPE":"0","MEAN_MOTION_DDOT":"0.0000000000000","FILE":"3527697","TLE_LINE1":"1 45571U 20025AS  22214.44294546  .00001522  00000-0  12103-3 0  9990","MEAN_MOTION":"15.06404915","REV_AT_EPOCH":"12728","RA_OF_ASC_NODE":"220.9857","ELEMENT_SET_NO":"999","PERIOD":"95.592","RCS_SIZE":"LARGE","ARG_OF_PERICENTER":"75.7452","NORAD_CAT_ID":"45571","INCLINATION":"53.0520","ECCENTRICITY":"0.00013880","MEAN_MOTION_DOT":"0.00001522","TLE_LINE2":"2 45571  53.0520 220.9857 0001388  75.7452 284.3691 15.06404915127280","GP_ID":"209425920","DECAY_DATE":null,"OBJECT_NAME":"STARLINK-1261","LAUNCH_DATE":"2020-04-22","MEAN_ELEMENT_THEORY":"SGP4","EPOCH":"2022-08-02T10:37:50.487744","MEAN_ANOMALY":"284.3691","BSTAR":"0.00012103000000","CENTER_NAME":"EARTH","OBJECT_ID":"2020-025AS","COUNTRY_CODE":"US","SEMIMAJOR_AXIS":"6925.333","SITE":"AFETR","PERIAPSIS":"546.237","TIME_SYSTEM":"UTC","OBJECT_TYPE":"PAYLOAD","REF_FRAME":"TEME","APOAPSIS":"548.160"},{"OBJECT_NAME":"STARLINK-1320","EPOCH":"2022-08-02T10:27:13.186656","LAUNCH_DATE":"2020-04-22","MEAN_ELEMENT_THEORY":"SGP4","MEAN_ANOMALY":"284.5210","BSTAR":"0.00006980200000","DECAY_DATE":null,"GP_ID":"209424669","TIME_SYSTEM":"UTC","PERIAPSIS":"546.151","OBJECT_TYPE":"PAYLOAD","APOAPSIS":"548.281","REF_FRAME":"TEME","COUNTRY_CODE":"US","CENTER_NAME":"EARTH","OBJECT_ID":"2020-025AT","SEMIMAJOR_AXIS":"6925.351","SITE":"AFETR","REV_AT_EPOCH":"12727","PERIOD":"95.592","ELEMENT_SET_NO":"999","RA_OF_ASC_NODE":"221.0306","EPHEMERIS_TYPE":"0","CLASSIFICATION_TYPE":"U","FILE":"3527697","MEAN_MOTION_DDOT":"0.0000000000000","MEAN_MOTION":"15.06399275","TLE_LINE1":"1 45572U 20025AT  22214.43556929  .00000758  00000-0  69802-4 0  9995","ECCENTRICITY":"0.00015380","INCLINATION":"53.0528","MEAN_MOTION_DOT":"0.00000758","TLE_LINE2":"2 45572  53.0528 221.0306 0001538  75.5950 284.5210 15.06399275127278","RCS_SIZE":"LARGE","ARG_OF_PERICENTER":"75.5950","NORAD_CAT_ID":"45572"},{"MEAN_ANOMALY":"301.1124","BSTAR":"0.00006724400000","OBJECT_NAME":"STARLINK-1321","MEAN_ELEMENT_THEORY":"SGP4","LAUNCH_DATE":"2020-04-22","EPOCH":"2022-08-02T08:19:49.351872","GP_ID":"209425418","DECAY_DATE":null,"APOAPSIS":"548.286","REF_FRAME":"TEME","TIME_SYSTEM":"UTC","PERIAPSIS":"546.138","OBJECT_TYPE":"PAYLOAD","SEMIMAJOR_AXIS":"6925.347","SITE":"AFETR","COUNTRY_CODE":"US","CENTER_NAME":"EARTH","OBJECT_ID":"2020-025AU","PERIOD":"95.592","RA_OF_ASC_NODE":"221.4302","ELEMENT_SET_NO":"999","REV_AT_EPOCH":"12695","MEAN_MOTION":"15.06400423","TLE_LINE1":"1 45573U 20025AU  22214.34709898  .00000720  00000-0  67244-4 0  9998","EPHEMERIS_TYPE":"0","CLASSIFICATION_TYPE":"U","FILE":"3527697","MEAN_MOTION_DDOT":"0.0000000000000","MEAN_MOTION_DOT":"0.00000720","TLE_LINE2":"2 45573  53.0541 221.4302 0001551  59.0017 301.1124 15.06400423126952","ECCENTRICITY":"0.00015510","INCLINATION":"53.0541","NORAD_CAT_ID":"45573","RCS_SIZE":"LARGE","ARG_OF_PERICENTER":"59.0017"},{"DECAY_DATE":null,"GP_ID":"209432076","LAUNCH_DATE":"2020-04-22","EPOCH":"2022-08-02T12:08:03.096096","MEAN_ELEMENT_THEORY":"SGP4","OBJECT_NAME":"STARLINK-1324","BSTAR":"0.00008838200000","MEAN_ANOMALY":"287.1862","COUNTRY_CODE":"US","CENTER_NAME":"EARTH","OBJECT_ID":"2020-025AV","SITE":"AFETR","SEMIMAJOR_AXIS":"6925.333","OBJECT_TYPE":"PAYLOAD","TIME_SYSTEM":"UTC","PERIAPSIS":"546.246","APOAPSIS":"548.151","REF_FRAME":"TEME","FILE":"3527735","MEAN_MOTION_DDOT":"0.0000000000000","EPHEMERIS_TYPE":"0","CLASSIFICATION_TYPE":"U","MEAN_MOTION":"15.06404935","TLE_LINE1":"1 45574U 20025AV  22214.50559139  .00001035  00000-0  88382-4 0  9994","REV_AT_EPOCH":"12668","PERIOD":"95.592","RA_OF_ASC_NODE":"220.7051","ELEMENT_SET_NO":"999","ARG_OF_PERICENTER":"72.9278","RCS_SIZE":"LARGE","NORAD_CAT_ID":"45574","ECCENTRICITY":"0.00013750","INCLINATION":"53.0521","TLE_LINE2":"2 45574  53.0521 220.7051 0001375  72.9278 287.1862 15.06404935126685","MEAN_MOTION_DOT":"0.00001035"},{"LAUNCH_DATE":"2020-04-22","MEAN_ELEMENT_THEORY":"SGP4","EPOCH":"2022-08-02T10:42:35.523936","OBJECT_NAME":"STARLINK-1326","BSTAR":"0.00052603000000","MEAN_ANOMALY":"333.5658","GP_ID":"209426420","DECAY_DATE":null,"OBJECT_TYPE":"PAYLOAD","PERIAPSIS":"516.469","TIME_SYSTEM":"UTC","REF_FRAME":"TEME","APOAPSIS":"518.124","CENTER_NAME":"EARTH","OBJECT_ID":"2020-025AW","COUNTRY_CODE":"US","SITE":"AFETR","SEMIMAJOR_AXIS":"6895.432","REV_AT_EPOCH":"12745","RA_OF_ASC_NODE":"206.0293","ELEMENT_SET_NO":"999","PERIOD":"94.973","MEAN_MOTION_DDOT":"0.0000000000000","FILE":"3527697","CLASSIFICATION_TYPE":"U","EPHEMERIS_TYPE":"0","TLE_LINE1":"1 45575U 20025AW  22214.44624449  .00009992  00000-0  52603-3 0  9991","MEAN_MOTION":"15.16214219","INCLINATION":"52.9962","ECCENTRICITY":"0.00012000","TLE_LINE2":"2 45575  52.9962 206.0293 0001200  26.5395 333.5658 15.16214219127450","MEAN_MOTION_DOT":"0.00009992","ARG_OF_PERICENTER":"26.5395","RCS_SIZE":"LARGE","NORAD_CAT_ID":"45575"}];
